{
    "links": {
        "self": "http://www.neowsapp.com/rest/v1/neo/3772388?api_key=iIulBulltgU6a56xZRHN4H3l9WmuAYTsLGpBGhQ2"
    },
    "id": "3772388",
    "neo_reference_id": "3772388",
    "name": "(2017 FZ64)",
    "designation": "2017 FZ64",
    "nasa_jpl_url": "http://ssd.jpl.nasa.gov/sbdb.cgi?sstr=3772388",
    "absolute_magnitude_h": 24.2,
    "estimated_diameter": {
        "kilometers": {
            "estimated_diameter_min": 0.0384197891,
            "estimated_diameter_max": 0.0859092601
        },
        "meters": {
            "estimated_diameter_min": 38.4197891064,
            "estimated_diameter_max": 85.9092601232
        },
        "miles": {
            "estimated_diameter_min": 0.0238729428,
            "estimated_diameter_max": 0.0533815229
        },
        "feet": {
            "estimated_diameter_min": 126.0491808919,
            "estimated_diameter_max": 281.8545369825
        }
    },
    "is_potentially_hazardous_asteroid": false,
    "close_approach_data": [
        {
            "close_approach_date": "2009-02-20",
            "close_approach_date_full": "2009-Feb-20 02:17",
            "epoch_date_close_approach": 1235096220000,
            "relative_velocity": {
                "kilometers_per_second": "23.4423575635",
                "kilometers_per_hour": "84392.4872285485",
                "miles_per_hour": "52438.2096337612"
            },
            "miss_distance": {
                "astronomical": "0.4870816672",
                "lunar": "189.4747685408",
                "kilometers": "72866379.929168864",
                "miles": "45277068.9623997632"
            },
            "orbiting_body": "Earth"
        },
        {
            "close_approach_date": "2017-03-29",
            "close_approach_date_full": "2017-Mar-29 22:25",
            "epoch_date_close_approach": 1490826300000,
            "relative_velocity": {
                "kilometers_per_second": "8.8176426119",
                "kilometers_per_hour": "31743.5134028605",
                "miles_per_hour": "19724.1847585719"
            },
            "miss_distance": {
                "astronomical": "0.0634713712",
                "lunar": "24.6903633968",
                "kilometers": "9495181.937499344",
                "miles": "5900032.4678211872"
            },
            "orbiting_body": "Earth"
        },
        {
            "close_approach_date": "2025-07-01",
            "close_approach_date_full": "2025-Jul-01 03:06",
            "epoch_date_close_approach": 1751339160000,
            "relative_velocity": {
                "kilometers_per_second": "19.1022014626",
                "kilometers_per_hour": "68767.925265455",
                "miles_per_hour": "42729.714451749"
            },
            "miss_distance": {
                "astronomical": "0.3824777717",
                "lunar": "148.7838531913",
                "kilometers": "57217859.968666279",
                "miles": "35553529.5454574902"
            },
            "orbiting_body": "Earth"
        },
        {
            "close_approach_date": "2133-02-27",
            "close_approach_date_full": "2133-Feb-27 06:19",
            "epoch_date_close_approach": 5148771540000,
            "relative_velocity": {
                "kilometers_per_second": "20.5827758797",
                "kilometers_per_hour": "74097.9931669387",
                "miles_per_hour": "46041.6113653126"
            },
            "miss_distance": {
                "astronomical": "0.3869537596",
                "lunar": "150.5250124844",
                "kilometers": "57887458.224652052",
                "miles": "35969598.6083482376"
            },
            "orbiting_body": "Earth"
        }
    ],
    "orbital_data": {
        "orbit_id": "4",
        "orbit_determination_date": "2018-02-10 07:08:50",
        "first_observation_date": "2017-02-27",
        "last_observation_date": "2017-03-26",
        "data_arc_in_days": 27,
        "observations_used": 38,
        "orbit_uncertainty": "7",
        "minimum_orbit_intersection": ".0551435",
        "jupiter_tisserand_invariant": "3.736",
        "epoch_osculation": "2459000.5",
        "eccentricity": ".4975148067001558",
        "semi_major_axis": "1.936752584040855",
        "inclination": "7.654824928114304",
        "ascending_node_longitude": "163.3352904062066",
        "orbital_period": "984.4862230795852",
        "perihelion_distance": ".9731894965657417",
        "perihelion_argument": "52.76300555425639",
        "aphelion_distance": "2.900315671515968",
        "perihelion_time": "2458850.202631707003",
        "mean_anomaly": "54.95968487626565",
        "mean_motion": ".3656729688647942",
        "equinox": "J2000",
        "orbit_class": {
            "orbit_class_type": "APO",
            "orbit_class_description": "Near-Earth asteroid orbits which cross the Earth’s orbit similar to that of 1862 Apollo",
            "orbit_class_range": "a (semi-major axis) > 1.0 AU; q (perihelion) < 1.017 AU"
        }
    },
    "is_sentry_object": false
}